14-May-2025 03:41:07
1 63520U 25072A   25133.44462271  .00008689  00000+0  16281-3 0  9997
2 63520  51.6344 119.1760 0002307 106.2285 253.8958 15.49506546  2481
